start=new Date('2023-05-06T00:00:00.000Z').valueOf();
sats=[{"TIME_SYSTEM":"UTC","ARG_OF_PERICENTER":"92.0153","OBJECT_TYPE":"PAYLOAD","INCLINATION":"53.2158","MEAN_ELEMENT_THEORY":"SGP4","REV_AT_EPOCH":"5902","ECCENTRICITY":"0.00010350","MEAN_MOTION":"15.08839424","TLE_LINE2":"2 52375  53.2158 174.7498 0001035  92.0153 268.0958 15.08839424 59025","TLE_LINE1":"1 52375U 22045AW  23125.38312158  .00001536  00000-0  11455-3 0  9993","FILE":"3901451","SEMIMAJOR_AXIS":"6917.882","RCS_SIZE":"LARGE","BSTAR":"0.00011455000000","SITE":"AFETR","MEAN_MOTION_DOT":"0.00001536","EPOCH":"2023-05-05T09:11:41.704512","MEAN_MOTION_DDOT":"0.0000000000000","GP_ID":"231282939","PERIOD":"95.438","PERIAPSIS":"539.031","DECAY_DATE":null,"LAUNCH_DATE":"2022-04-29","REF_FRAME":"TEME","COUNTRY_CODE":"US","OBJECT_NAME":"STARLINK-3785","RA_OF_ASC_NODE":"174.7498","ELEMENT_SET_NO":"999","APOAPSIS":"540.463","NORAD_CAT_ID":"52375","OBJECT_ID":"2022-045AW","MEAN_ANOMALY":"268.0958","CLASSIFICATION_TYPE":"U","EPHEMERIS_TYPE":"0","CENTER_NAME":"EARTH"},{"INCLINATION":"53.2145","OBJECT_TYPE":"PAYLOAD","REV_AT_EPOCH":"5902","MEAN_ELEMENT_THEORY":"SGP4","ARG_OF_PERICENTER":"93.2019","TIME_SYSTEM":"UTC","PERIOD":"95.438","GP_ID":"231282764","MEAN_MOTION":"15.08832267","TLE_LINE2":"2 52376  53.2145 174.8010 0001124  93.2019 266.9102 15.08832267 59022","TLE_LINE1":"1 52376U 22045AX  23125.37208545 -.00000239  00000-0  30706-5 0  9999","ECCENTRICITY":"0.00011240","EPOCH":"2023-05-05T08:55:48.182880","MEAN_MOTION_DDOT":"0.0000000000000","BSTAR":"0.00000307060000","SITE":"AFETR","MEAN_MOTION_DOT":"-0.00000239","FILE":"3901455","RCS_SIZE":"LARGE","SEMIMAJOR_AXIS":"6917.904","REF_FRAME":"TEME","LAUNCH_DATE":"2022-04-29","DECAY_DATE":null,"OBJECT_NAME":"STARLINK-3767","COUNTRY_CODE":"US","PERIAPSIS":"538.991","CLASSIFICATION_TYPE":"U","MEAN_ANOMALY":"266.9102","NORAD_CAT_ID":"52376","OBJECT_ID":"2022-045AX","APOAPSIS":"540.547","CENTER_NAME":"EARTH","EPHEMERIS_TYPE":"0","ELEMENT_SET_NO":"999","RA_OF_ASC_NODE":"174.8010"},{"PERIAPSIS":"539.478","REF_FRAME":"TEME","LAUNCH_DATE":"2022-04-29","DECAY_DATE":null,"OBJECT_NAME":"STARLINK-3805","COUNTRY_CODE":"US","ELEMENT_SET_NO":"999","RA_OF_ASC_NODE":"172.2404","MEAN_ANOMALY":"257.4071","CLASSIFICATION_TYPE":"U","OBJECT_ID":"2022-045AY","NORAD_CAT_ID":"52377","APOAPSIS":"540.020","CENTER_NAME":"EARTH","EPHEMERIS_TYPE":"0","ARG_OF_PERICENTER":"102.6965","TIME_SYSTEM":"UTC","INCLINATION":"53.2144","OBJECT_TYPE":"PAYLOAD","REV_AT_EPOCH":"5910","MEAN_ELEMENT_THEORY":"SGP4","MEAN_MOTION":"15.08838911","TLE_LINE2":"2 52377  53.2144 172.2404 0000392 102.6965 257.4071 15.08838911 59103","TLE_LINE1":"1 52377U 22045AY  23125.99034831  .00001171  00000-0  91598-4 0  9993","ECCENTRICITY":"0.00003920","MEAN_MOTION_DDOT":"0.0000000000000","EPOCH":"2023-05-05T23:46:06.093984","BSTAR":"0.00009159800000","SITE":"AFETR","MEAN_MOTION_DOT":"0.00001171","FILE":"3901959","RCS_SIZE":"LARGE","SEMIMAJOR_AXIS":"6917.884","PERIOD":"95.438","GP_ID":"231294703"},{"TLE_LINE1":"1 52378U 22045AZ  23125.36472823  .00001420  00000-0  10733-3 0  9990","TLE_LINE2":"2 52378  53.2159 174.8321 0001151  84.4478 275.6645 15.08830669 59028","MEAN_MOTION":"15.08830669","ECCENTRICITY":"0.00011510","MEAN_MOTION_DOT":"0.00001420","SITE":"AFETR","BSTAR":"0.00010733000000","EPOCH":"2023-05-05T08:45:12.519072","MEAN_MOTION_DDOT":"0.0000000000000","SEMIMAJOR_AXIS":"6917.909","FILE":"3901451","RCS_SIZE":"LARGE","PERIOD":"95.438","GP_ID":"231282948","TIME_SYSTEM":"UTC","ARG_OF_PERICENTER":"84.4478","INCLINATION":"53.2159","OBJECT_TYPE":"PAYLOAD","MEAN_ELEMENT_THEORY":"SGP4","REV_AT_EPOCH":"5902","ELEMENT_SET_NO":"999","RA_OF_ASC_NODE":"174.8321","NORAD_CAT_ID":"52378","OBJECT_ID":"2022-045AZ","MEAN_ANOMALY":"275.6645","CLASSIFICATION_TYPE":"U","APOAPSIS":"540.570","CENTER_NAME":"EARTH","EPHEMERIS_TYPE":"0","PERIAPSIS":"538.978","LAUNCH_DATE":"2022-04-29","REF_FRAME":"TEME","DECAY_DATE":null,"OBJECT_NAME":"STARLINK-3806","COUNTRY_CODE":"US"},{"ARG_OF_PERICENTER":"84.4300","TIME_SYSTEM":"UTC","MEAN_ELEMENT_THEORY":"SGP4","REV_AT_EPOCH":"5902","INCLINATION":"53.2132","OBJECT_TYPE":"PAYLOAD","EPOCH":"2023-05-05T08:50:29.369472","MEAN_MOTION_DDOT":"0.0000000000000","SITE":"AFETR","MEAN_MOTION_DOT":"-0.00006582","BSTAR":"-0.00039596000000","FILE":"3901451","SEMIMAJOR_AXIS":"6917.908","RCS_SIZE":"LARGE","TLE_LINE1":"1 52379U 22045BA  23125.36839548 -.00006582  00000-0 -39596-3 0  9996","TLE_LINE2":"2 52379  53.2132 174.8100 0000882  84.4300 275.6793 15.08831076 59026","MEAN_MOTION":"15.08831076","ECCENTRICITY":"0.00008820","PERIOD":"95.438","GP_ID":"231282712","PERIAPSIS":"539.163","OBJECT_NAME":"STARLINK-3800","COUNTRY_CODE":"US","REF_FRAME":"TEME","LAUNCH_DATE":"2022-04-29","DECAY_DATE":null,"RA_OF_ASC_NODE":"174.8100","ELEMENT_SET_NO":"999","CENTER_NAME":"EARTH","EPHEMERIS_TYPE":"0","CLASSIFICATION_TYPE":"U","MEAN_ANOMALY":"275.6793","NORAD_CAT_ID":"52379","OBJECT_ID":"2022-045BA","APOAPSIS":"540.383"},{"ECCENTRICITY":"0.00011360","MEAN_MOTION":"15.08838292","TLE_LINE2":"2 52380  53.2156 162.2635 0001136  90.5218 269.5904 15.08838292 59244","TLE_LINE1":"1 52380U 22045BB  23125.94340912  .00001416  00000-0  10702-3 0  9991","SEMIMAJOR_AXIS":"6917.886","FILE":"3901959","RCS_SIZE":"LARGE","EPOCH":"2023-05-05T22:38:30.547968","MEAN_MOTION_DDOT":"0.0000000000000","MEAN_MOTION_DOT":"0.00001416","SITE":"AFETR","BSTAR":"0.00010702000000","GP_ID":"231294648","PERIOD":"95.438","ARG_OF_PERICENTER":"90.5218","TIME_SYSTEM":"UTC","OBJECT_TYPE":"PAYLOAD","INCLINATION":"53.2156","MEAN_ELEMENT_THEORY":"SGP4","REV_AT_EPOCH":"5924","ELEMENT_SET_NO":"999","RA_OF_ASC_NODE":"162.2635","APOAPSIS":"540.536","MEAN_ANOMALY":"269.5904","CLASSIFICATION_TYPE":"U","OBJECT_ID":"2022-045BB","NORAD_CAT_ID":"52380","EPHEMERIS_TYPE":"0","CENTER_NAME":"EARTH","PERIAPSIS":"538.965","DECAY_DATE":null,"REF_FRAME":"TEME","LAUNCH_DATE":"2022-04-29","COUNTRY_CODE":"US","OBJECT_NAME":"STARLINK-3793"},{"PERIOD":"95.438","GP_ID":"231282950","MEAN_MOTION":"15.08839531","TLE_LINE2":"2 52381  53.2148 174.8438 0001307  89.5352 270.5790 15.08839531 59021","TLE_LINE1":"1 52381U 22045BC  23125.36104209  .00001738  00000-0  12728-3 0  9992","ECCENTRICITY":"0.00013070","EPOCH":"2023-05-05T08:39:54.036576","MEAN_MOTION_DDOT":"0.0000000000000","SITE":"AFETR","BSTAR":"0.00012728000000","MEAN_MOTION_DOT":"0.00001738","SEMIMAJOR_AXIS":"6917.882","FILE":"3901451","RCS_SIZE":"LARGE","INCLINATION":"53.2148","OBJECT_TYPE":"PAYLOAD","REV_AT_EPOCH":"5902","MEAN_ELEMENT_THEORY":"SGP4","ARG_OF_PERICENTER":"89.5352","TIME_SYSTEM":"UTC","MEAN_ANOMALY":"270.5790","CLASSIFICATION_TYPE":"U","OBJECT_ID":"2022-045BC","NORAD_CAT_ID":"52381","APOAPSIS":"540.651","CENTER_NAME":"EARTH","EPHEMERIS_TYPE":"0","ELEMENT_SET_NO":"999","RA_OF_ASC_NODE":"174.8438","REF_FRAME":"TEME","LAUNCH_DATE":"2022-04-29","DECAY_DATE":null,"OBJECT_NAME":"STARLINK-3803","COUNTRY_CODE":"US","PERIAPSIS":"538.843"},{"CENTER_NAME":"EARTH","EPHEMERIS_TYPE":"0","OBJECT_ID":"2022-045BD","NORAD_CAT_ID":"52382","MEAN_ANOMALY":"267.5375","CLASSIFICATION_TYPE":"U","APOAPSIS":"540.515","ELEMENT_SET_NO":"999","RA_OF_ASC_NODE":"174.8720","OBJECT_NAME":"STARLINK-3799","COUNTRY_CODE":"US","LAUNCH_DATE":"2022-04-29","REF_FRAME":"TEME","DECAY_DATE":null,"PERIAPSIS":"538.994","PERIOD":"95.438","GP_ID":"231282721","MEAN_MOTION_DOT":"0.00001589","SITE":"AFETR","BSTAR":"0.00011788000000","EPOCH":"2023-05-05T08:34:36.139008","MEAN_MOTION_DDOT":"0.0000000000000","RCS_SIZE":"LARGE","FILE":"3901452","SEMIMAJOR_AXIS":"6917.889","TLE_LINE1":"1 52382U 22045BD  23125.35736272  .00001589  00000-0  11788-3 0  9992","TLE_LINE2":"2 52382  53.2152 174.8720 0001099  92.5743 267.5375 15.08837022 59025","MEAN_MOTION":"15.08837022","ECCENTRICITY":"0.00010990","REV_AT_EPOCH":"5902","MEAN_ELEMENT_THEORY":"SGP4","INCLINATION":"53.2152","OBJECT_TYPE":"PAYLOAD","TIME_SYSTEM":"UTC","ARG_OF_PERICENTER":"92.5743"},{"EPHEMERIS_TYPE":"0","CENTER_NAME":"EARTH","APOAPSIS":"540.393","MEAN_ANOMALY":"270.7237","CLASSIFICATION_TYPE":"U","NORAD_CAT_ID":"52383","OBJECT_ID":"2022-045BE","RA_OF_ASC_NODE":"164.7886","ELEMENT_SET_NO":"999","COUNTRY_CODE":"US","OBJECT_NAME":"STARLINK-3811","DECAY_DATE":null,"REF_FRAME":"TEME","LAUNCH_DATE":"2022-04-29","PERIAPSIS":"539.099","GP_ID":"231283001","PERIOD":"95.438","FILE":"3901455","RCS_SIZE":"LARGE","SEMIMAJOR_AXIS":"6917.881","MEAN_MOTION_DDOT":"0.0000000000000","EPOCH":"2023-05-05T09:07:43.542912","BSTAR":"0.00009565800000","SITE":"AFETR","MEAN_MOTION_DOT":"0.00001235","ECCENTRICITY":"0.00009350","TLE_LINE2":"2 52383  53.2158 164.7886 0000935  89.3862 270.7237 15.08839819 59161","MEAN_MOTION":"15.08839819","TLE_LINE1":"1 52383U 22045BE  23125.38036508  .00001235  00000-0  95658-4 0  9998","MEAN_ELEMENT_THEORY":"SGP4","REV_AT_EPOCH":"5916","OBJECT_TYPE":"PAYLOAD","INCLINATION":"53.2158","ARG_OF_PERICENTER":"89.3862","TIME_SYSTEM":"UTC"},{"ARG_OF_PERICENTER":"90.6426","TIME_SYSTEM":"UTC","MEAN_ELEMENT_THEORY":"SGP4","REV_AT_EPOCH":"5547","OBJECT_TYPE":"PAYLOAD","INCLINATION":"53.2178","FILE":"3901968","SEMIMAJOR_AXIS":"6917.885","RCS_SIZE":"LARGE","MEAN_MOTION_DDOT":"0.0000000000000","EPOCH":"2023-05-06T01:37:21.226656","BSTAR":"0.00000057557000","SITE":"AFETR","MEAN_MOTION_DOT":"-0.00000279","ECCENTRICITY":"0.00012160","TLE_LINE2":"2 52451  53.2178  51.6738 0001216  90.6426 269.4705 15.08838470 55470","TLE_LINE1":"1 52451U 22049A   23126.06760679 -.00000279  00000-0  57557-6 0  9993","MEAN_MOTION":"15.08838470","GP_ID":"231294822","PERIOD":"95.438","PERIAPSIS":"538.909","COUNTRY_CODE":"US","OBJECT_NAME":"STARLINK-3870","DECAY_DATE":null,"REF_FRAME":"TEME","LAUNCH_DATE":"2022-05-06","RA_OF_ASC_NODE":"51.6738","ELEMENT_SET_NO":"999","EPHEMERIS_TYPE":"0","CENTER_NAME":"EARTH","APOAPSIS":"540.591","MEAN_ANOMALY":"269.4705","CLASSIFICATION_TYPE":"U","OBJECT_ID":"2022-049A","NORAD_CAT_ID":"52451"}];
